NORAD_CAT_ID,OBJECT_NAME,OBJECT_TYPE,EPOCH,MEAN_MOTION,ECCENTRICITY,INCLINATION,RA_OF_ASC_NODE,ARG_OF_PERICENTER,MEAN_ANOMALY,BSTAR,MEAN_MOTION_DOT,MEAN_MOTION_DDOT,TLE_LINE0,TLE_LINE1,TLE_LINE2,SEMIMAJOR_AXIS,PERIOD,APOGEE,PERIGEE,DECAYED
53781.0,STARLINK-4462,PAYLOAD,2023-09-14 09:10:55,15.08813776,0.0001306,53.2195,27.1788,92.4324,267.6818,-0.00012757,-2.316e-05,0.0,0 STARLINK-4462,1 53781U 22111J   23257.38258394 -.00002316  00000-0 -12757-3 0  9991,2 53781  53.2195  27.1788 0001306  92.4324 267.6818 15.08813776 55912,6917.961,95.439,540.729,538.922,0.0
53781.0,STARLINK-4462,PAYLOAD,2023-09-14 12:21:41,15.08817083,0.0001418,53.2194,26.5837,102.6966,257.4184,-9.1207e-05,-1.738e-05,0.0,0 STARLINK-4462,1 53781U 22111J   23257.51506259 -.00001738  00000-0 -91207-4 0  9997,2 53781  53.2194  26.5837 0001418 102.6966 257.4184 15.08817083 56749,6917.95,95.439,540.796,538.834,0.0
53781.0,STARLINK-4462,PAYLOAD,2023-09-14 15:32:26,15.0882173,0.000155,53.2192,25.989,105.4396,254.6767,-0.00019335,-3.362e-05,0.0,0 STARLINK-4462,1 53781U 22111J   23257.64753372 -.00003362  00000-0 -19335-3 0  9997,2 53781  53.2192  25.9890 0001550 105.4396 254.6767 15.08821730 55956,6917.936,95.439,540.874,538.729,0.0
53781.0,STARLINK-4462,PAYLOAD,2023-09-15 09:01:40,15.08846359,0.0001174,53.2186,22.7183,103.3492,256.7632,-7.9704e-06,-4.15e-06,0.0,0 STARLINK-4462,1 53781U 22111J   23258.37616191 -.00000415  00000-0 -79704-5 0  9999,2 53781  53.2186  22.7183 0001174 103.3492 256.7632 15.08846359 56066,6917.861,95.437,540.538,538.914,0.0
53781.0,STARLINK-4462,PAYLOAD,2023-09-15 13:47:49,15.08860303,0.0001364,53.2186,21.8239,112.5373,247.5763,0.00021565,3.148e-05,0.0,0 STARLINK-4462,1 53781U 22111J   23258.57487396  .00003148  00000-0  21565-3 0  9998,2 53781  53.2186  21.8239 0001364 112.5373 247.5763 15.08860303 56900,6917.818,95.436,540.627,538.74,0.0
53781.0,STARLINK-4462,PAYLOAD,2023-09-15 15:23:12,15.08861577,0.0001288,53.2187,21.5268,109.9806,250.1325,0.0002415,3.56e-05,0.0,0 STARLINK-4462,1 53781U 22111J   23258.64111306  .00003560  00000-0  24150-3 0  9992,2 53781  53.2187  21.5268 0001288 109.9806 250.1325 15.08861577 56106,6917.814,95.436,540.57,538.788,0.0
53781.0,STARLINK-4462,PAYLOAD,2023-09-16 00:55:31,15.08852659,0.0001389,53.2191,19.7426,82.4062,277.7088,0.00012346,1.678e-05,0.0,0 STARLINK-4462,1 53781U 22111J   23259.03855617  .00001678  00000-0  12346-3 0  9998,2 53781  53.2191  19.7426 0001389  82.4062 277.7088 15.08852659 56165,6917.842,95.437,540.668,538.746,0.0
53781.0,STARLINK-4462,PAYLOAD,2023-09-16 08:52:28,15.08825915,0.0001274,53.2189,18.2577,93.123,266.9908,0.00022733,3.331e-05,0.0,0 STARLINK-4462,1 53781U 22111J   23259.36977423  .00003331  00000-0  22733-3 0  9993,2 53781  53.2189  18.2577 0001274  93.1230 266.9908 15.08825915 56214,6917.923,95.438,540.67,538.907,0.0
53781.0,STARLINK-4462,PAYLOAD,2023-09-16 13:38:37,15.08833116,0.0001243,53.2193,17.3654,97.141,262.9724,6.8577e-06,-1.79e-06,0.0,0 STARLINK-4462,1 53781U 22111J   23259.56848912 -.00000179  00000-0  68577-5 0  9991,2 53781  53.2193  17.3654 0001243  97.1410 262.9724 15.08833116 57052,6917.901,95.438,540.626,538.907,0.0
53781.0,STARLINK-4462,PAYLOAD,2023-09-17 07:07:51,15.08842894,0.0001264,53.2196,14.0945,88.6626,271.4511,0.00012139,1.645e-05,0.0,0 STARLINK-4462,1 53781U 22111J   23260.29712648  .00001645  00000-0  12139-3 0  9998,2 53781  53.2196  14.0945 0001264  88.6626 271.4511 15.08842894 56353,6917.872,95.437,540.611,538.862,0.0
53781.0,STARLINK-4462,PAYLOAD,2023-09-17 13:29:24,15.0885142,0.0001258,53.219,12.9052,85.0834,275.0302,0.00042899,6.548e-05,0.0,0 STARLINK-4462,1 53781U 22111J   23260.56208471  .00006548  00000-0  42899-3 0  9995,2 53781  53.2190  12.9052 0001258  85.0834 275.0302 15.08851420 57206,6917.845,95.437,540.581,538.84,0.0
53781.0,STARLINK-4462,PAYLOAD,2023-09-18 13:20:10,15.08873702,0.0001281,53.2187,8.4461,78.9295,281.1841,0.0012425,0.0001956,0.0,0 STARLINK-4462,1 53781U 22111J   23261.55567963  .00019560  00000-0  12425-2 0  9998,2 53781  53.2187   8.4461 0001281  78.9295 281.1841 15.08873702 57353,6917.777,95.435,540.529,538.756,0.0
53781.0,STARLINK-4462,PAYLOAD,2023-09-18 14:55:33,15.08879938,0.000131,53.2183,8.1488,78.7533,281.3606,0.001471,0.00023226,0.0,0 STARLINK-4462,1 53781U 22111J   23261.62191793  .00023226  00000-0  14710-2 0  9993,2 53781  53.2183   8.1488 0001310  78.7533 281.3606 15.08879938 56550,6917.758,95.435,540.53,538.717,0.0
53781.0,STARLINK-4462,PAYLOAD,2023-09-18 19:41:42,15.0889767,0.0001251,53.2169,7.2542,85.9768,274.1368,0.0020389,0.00032362,0.0,0 STARLINK-4462,1 53781U 22111J   23261.82063048  .00032362  00000-0  20389-2 0  9996,2 53781  53.2169   7.2542 0001251  85.9768 274.1368 15.08897670 57390,6917.704,95.434,540.435,538.704,0.0
53781.0,STARLINK-4462,PAYLOAD,2023-09-19 00:27:52,15.08864375,0.0001709,53.2186,6.3642,64.7227,295.3942,0.0008776,0.00013716,0.0,0 STARLINK-4462,1 53781U 22111J   23262.01935829  .00013716  00000-0  87760-3 0  9992,2 53781  53.2186   6.3642 0001709  64.7227 295.3942 15.08864375 56616,6917.806,95.436,540.853,538.489,0.0
53781.0,STARLINK-4462,PAYLOAD,2023-09-19 06:49:24,15.08838443,7.05e-05,53.2177,5.1738,77.8633,282.2438,0.00038628,5.865e-05,0.0,0 STARLINK-4462,1 53781U 22111J   23262.28431648  .00005865  00000-0  38628-3 0  9996,2 53781  53.2177   5.1738 0000705  77.8633 282.2438 15.08838443 56656,6917.885,95.438,540.238,539.262,0.0
53781.0,STARLINK-4462,PAYLOAD,2023-09-19 13:10:57,15.08860273,0.0001288,53.2174,3.9842,64.2026,295.9099,0.0022873,0.00036322,0.0,0 STARLINK-4462,1 53781U 22111J   23262.54927530  .00036322  00000-0  22873-2 0  9991,2 53781  53.2174   3.9842 0001288  64.2026 295.9099 15.08860273 56692,6917.818,95.436,540.574,538.792,0.0
53781.0,STARLINK-4462,PAYLOAD,2023-09-20 13:01:46,15.08802995,0.0001095,53.2171,359.5228,82.6238,277.4878,0.0014554,0.00022927,0.0,0 STARLINK-4462,1 53781U 22111J   23263.54289802  .00022927  00000-0  14554-2 0  9998,2 53781  53.2171 359.5228 0001095  82.6238 277.4878 15.08802995 56846,6917.994,95.44,540.616,539.101,0.0
53781.0,STARLINK-4462,PAYLOAD,2023-09-21 12:52:34,15.0885638,0.000131,53.2182,355.0641,76.551,283.5628,0.0016846,0.00026636,0.0,0 STARLINK-4462,1 53781U 22111J   23264.53650482  .00026636  00000-0  16846-2 0  9991,2 53781  53.2182 355.0641 0001310  76.5510 283.5628 15.08856380 57808,6917.83,95.437,540.602,538.789,0.0
53781.0,STARLINK-4462,PAYLOAD,2023-09-22 11:07:58,15.0884304,0.0001305,53.2189,350.8993,111.0958,249.0173,0.00074839,0.00011644,0.0,0 STARLINK-4462,1 53781U 22111J   23265.46386575  .00011644  00000-0  74839-3 0  9993,2 53781  53.2189 350.8993 0001305 111.0958 249.0173 15.08843040 57130,6917.871,95.437,540.639,538.833,0.0
53781.0,STARLINK-4462,PAYLOAD,2023-09-22 12:43:21,15.08840568,0.0001371,53.2188,350.6029,105.055,255.0594,0.00017886,2.56e-05,0.0,0 STARLINK-4462,1 53781U 22111J   23265.53010591  .00002560  00000-0  17886-3 0  9999,2 53781  53.2188 350.6029 0001371 105.0550 255.0594 15.08840568 57957,6917.879,95.438,540.692,538.795,0.0
53781.0,STARLINK-4462,PAYLOAD,2023-09-22 17:29:30,15.08851505,0.0001102,53.2179,349.709,100.7426,259.369,0.00047602,7.298e-05,0.0,0 STARLINK-4462,1 53781U 22111J   23265.72882337  .00007298  00000-0  47602-3 0  9997,2 53781  53.2179 349.7090 0001102 100.7426 259.3690 15.08851505 57980,6917.845,95.437,540.473,538.948,0.0
53781.0,STARLINK-4462,PAYLOAD,2023-09-23 12:34:07,15.08875443,0.0001169,53.2185,346.1433,88.6669,271.4457,0.0010846,0.00017032,0.0,0 STARLINK-4462,1 53781U 22111J   23266.52369385  .00017032  00000-0  10846-2 0  9995,2 53781  53.2185 346.1433 0001169  88.6669 271.4457 15.08875443 57292,6917.772,95.435,540.446,538.828,0.0
53781.0,STARLINK-4462,PAYLOAD,2023-09-23 22:06:25,15.08861447,0.0001343,53.2186,344.3568,79.1552,280.9591,0.00018986,2.737e-05,0.0,0 STARLINK-4462,1 53781U 22111J   23266.92113097  .00002737  00000-0  18986-3 0  9996,2 53781  53.2186 344.3568 0001343  79.1552 280.9591 15.08861447 57352,6917.815,95.436,540.609,538.751,0.0
53781.0,STARLINK-4462,PAYLOAD,2023-09-24 10:49:30,15.08844438,0.0001871,53.2191,341.9842,96.8063,263.3142,-0.00023997,-4.106e-05,0.0,0 STARLINK-4462,1 53781U 22111J   23267.45105316 -.00004106  00000-0 -23997-3 0  9992,2 53781  53.2191 341.9842 0001871  96.8063 263.3142 15.08844438 57432,6917.867,95.437,541.026,538.437,0.0
53781.0,STARLINK-4462,PAYLOAD,2023-09-24 14:00:17,15.08852811,0.0001571,53.2187,341.3868,91.5329,268.5843,0.00010927,1.452e-05,0.0,0 STARLINK-4462,1 53781U 22111J   23267.58353083  .00001452  00000-0  10927-3 0  9990,2 53781  53.2187 341.3868 0001571  91.5329 268.5843 15.08852811 58264,6917.841,95.437,540.793,538.619,0.0
53781.0,STARLINK-4462,PAYLOAD,2023-09-24 15:35:39,15.08858883,0.0001495,53.2182,341.0868,89.2871,270.8293,0.00027914,4.16e-05,0.0,0 STARLINK-4462,1 53781U 22111J   23267.64976838  .00004160  00000-0  27914-3 0  9999,2 53781  53.2182 341.0868 0001495  89.2871 270.8293 15.08858883 57468,6917.823,95.436,540.722,538.653,0.0
53781.0,STARLINK-4462,PAYLOAD,2023-09-25 09:04:54,15.08852933,0.000146,53.2176,337.8177,94.5847,265.5312,0.00060225,9.313e-05,0.0,0 STARLINK-4462,1 53781U 22111J   23268.37841200  .00009313  00000-0  60225-3 0  9991,2 53781  53.2176 337.8177 0001460  94.5847 265.5312 15.08852933 57576,6917.841,95.437,540.716,538.696,0.0
53781.0,STARLINK-4462,PAYLOAD,2023-09-25 12:15:41,15.08855827,0.0001682,53.2177,337.2211,78.387,281.7311,0.00081639,0.00012734,0.0,0 STARLINK-4462,1 53781U 22111J   23268.51089259  .00012734  00000-0  81639-3 0  9998,2 53781  53.2177 337.2211 0001682  78.3870 281.7311 15.08855827 58409,6917.832,95.437,540.861,538.533,0.0
53781.0,STARLINK-4462,PAYLOAD,2023-09-25 17:01:50,15.08868858,0.0001506,53.2173,336.3271,93.8375,266.2789,0.0013302,0.00020962,0.0,0 STARLINK-4462,1 53781U 22111J   23268.70960789  .00020962  00000-0  13302-2 0  9998,2 53781  53.2173 336.3271 0001506  93.8375 266.2789 15.08868858 58436,6917.792,95.436,540.699,538.615,0.0
